CORVUS BC4              
1 43767U 18099K   26068.65923737  .00005714  00000+0  33980-3 0  9990
2 43767  97.4206 114.5457 0008046 356.5821   3.5354 15.11615710397368
STARLINK-4776           
1 53837U 22114V   26068.87612273 -.00002766  00000+0 -15585-3 0  9993
2 53837  53.2184 302.9943 0001436  88.7474 271.3683 15.08823289192865
